[{"OBJECT_NAME":"YAOGAN-43 01H","OBJECT_ID":"2024-148H","EPOCH":"2026-03-10T00:13:57.702432","MEAN_MOTION":15.25826805,"ECCENTRICITY":0.000635,"INCLINATION":34.994,"RA_OF_ASC_NODE":64.6147,"ARG_OF_PERICENTER":359.2394,"MEAN_ANOMALY":0.8311,"EPHEMERIS_TYPE":0,"CLASSIFICATION_TYPE":"U","NORAD_CAT_ID":60465,"ELEMENT_SET_NO":999,"REV_AT_EPOCH":8702,"BSTAR":0.00039232254,"MEAN_MOTION_DOT":0.00010268,"MEAN_MOTION_DDOT":0},{"OBJECT_NAME":"STARLINK-32661","OBJECT_ID":"2025-024W","EPOCH":"2026-03-09T09:48:40.116960","MEAN_MOTION":15.27581087,"ECCENTRICITY":8.59e-6,"INCLINATION":42.994,"RA_OF_ASC_NODE":326.8932,"ARG_OF_PERICENTER":165.883,"MEAN_ANOMALY":194.2024,"EPHEMERIS_TYPE":0,"CLASSIFICATION_TYPE":"U","NORAD_CAT_ID":62899,"ELEMENT_SET_NO":999,"REV_AT_EPOCH":6222,"BSTAR":0.00088569516,"MEAN_MOTION_DOT":0.00024191,"MEAN_MOTION_DDOT":0}]
